{
    "links": {
        "self": "http://www.neowsapp.com/rest/v1/neo/3789680?api_key=iIulBulltgU6a56xZRHN4H3l9WmuAYTsLGpBGhQ2"
    },
    "id": "3789680",
    "neo_reference_id": "3789680",
    "name": "(2017 WG15)",
    "designation": "2017 WG15",
    "nasa_jpl_url": "http://ssd.jpl.nasa.gov/sbdb.cgi?sstr=3789680",
    "absolute_magnitude_h": 21.8,
    "estimated_diameter": {
        "kilometers": {
            "estimated_diameter_min": 0.1160259082,
            "estimated_diameter_max": 0.2594418179
        },
        "meters": {
            "estimated_diameter_min": 116.0259082094,
            "estimated_diameter_max": 259.4418179074
        },
        "miles": {
            "estimated_diameter_min": 0.0720951346,
            "estimated_diameter_max": 0.1612096218
        },
        "feet": {
            "estimated_diameter_min": 380.6624406898,
            "estimated_diameter_max": 851.1870938635
        }
    },
    "is_potentially_hazardous_asteroid": false,
    "close_approach_data": [
        {
            "close_approach_date": "2014-12-02",
            "close_approach_date_full": "2014-Dec-02 05:24",
            "epoch_date_close_approach": 1417497840000,
            "relative_velocity": {
                "kilometers_per_second": "15.484684355",
                "kilometers_per_hour": "55744.8636779881",
                "miles_per_hour": "34637.6904336921"
            },
            "miss_distance": {
                "astronomical": "0.4513847248",
                "lunar": "175.5886579472",
                "kilometers": "67526193.380616176",
                "miles": "41958830.9098721888"
            },
            "orbiting_body": "Earth"
        },
        {
            "close_approach_date": "2017-11-18",
            "close_approach_date_full": "2017-Nov-18 23:27",
            "epoch_date_close_approach": 1511047620000,
            "relative_velocity": {
                "kilometers_per_second": "15.1060345894",
                "kilometers_per_hour": "54381.7245216665",
                "miles_per_hour": "33790.688772921"
            },
            "miss_distance": {
                "astronomical": "0.2541975298",
                "lunar": "98.8828390922",
                "kilometers": "38027409.017341526",
                "miles": "23629136.2657680188"
            },
            "orbiting_body": "Earth"
        },
        {
            "close_approach_date": "2023-05-29",
            "close_approach_date_full": "2023-May-29 21:16",
            "epoch_date_close_approach": 1685394960000,
            "relative_velocity": {
                "kilometers_per_second": "14.5242117535",
                "kilometers_per_hour": "52287.16231256",
                "miles_per_hour": "32489.2092713793"
            },
            "miss_distance": {
                "astronomical": "0.4232074286",
                "lunar": "164.6276897254",
                "kilometers": "63310929.886737082",
                "miles": "39339587.6307004516"
            },
            "orbiting_body": "Earth"
        },
        {
            "close_approach_date": "2029-07-21",
            "close_approach_date_full": "2029-Jul-21 16:29",
            "epoch_date_close_approach": 1879345740000,
            "relative_velocity": {
                "kilometers_per_second": "11.4168992125",
                "kilometers_per_hour": "41100.8371650137",
                "miles_per_hour": "25538.4618484498"
            },
            "miss_distance": {
                "astronomical": "0.0909811186",
                "lunar": "35.3916551354",
                "kilometers": "13610581.552777382",
                "miles": "8457223.2102445916"
            },
            "orbiting_body": "Mars"
        },
        {
            "close_approach_date": "2031-12-02",
            "close_approach_date_full": "2031-Dec-02 22:32",
            "epoch_date_close_approach": 1954017120000,
            "relative_velocity": {
                "kilometers_per_second": "15.5177681334",
                "kilometers_per_hour": "55863.965280407",
                "miles_per_hour": "34711.6955377063"
            },
            "miss_distance": {
                "astronomical": "0.4588684662",
                "lunar": "178.4998333518",
                "kilometers": "68645745.153686994",
                "miles": "42654488.1236047572"
            },
            "orbiting_body": "Earth"
        }
    ],
    "orbital_data": {
        "orbit_id": "3",
        "orbit_determination_date": "2017-12-08 06:19:41",
        "first_observation_date": "2017-11-24",
        "last_observation_date": "2017-12-08",
        "data_arc_in_days": 14,
        "observations_used": 37,
        "orbit_uncertainty": "7",
        "minimum_orbit_intersection": ".241787",
        "jupiter_tisserand_invariant": "4.773",
        "epoch_osculation": "2459000.5",
        "eccentricity": ".08903384198565063",
        "semi_major_axis": "1.336656951569516",
        "inclination": "29.34051148879855",
        "ascending_node_longitude": "60.7121513276462",
        "orbital_period": "564.4537581433473",
        "perihelion_distance": "1.217649247754454",
        "perihelion_argument": "331.1187108977315",
        "aphelion_distance": "1.455664655384578",
        "perihelion_time": "2459178.153446945994",
        "mean_anomaly": "246.6953404457342",
        "mean_motion": ".6377847517290784",
        "equinox": "J2000",
        "orbit_class": {
            "orbit_class_type": "AMO",
            "orbit_class_description": "Near-Earth asteroid orbits similar to that of 1221 Amor",
            "orbit_class_range": "1.017 AU < q (perihelion) < 1.3 AU"
        }
    },
    "is_sentry_object": false
}